{"type": "FeatureCollection", "features": [ {"type": "Feature", "properties": {"norad_id": 39122, "name": "EUTELSAT 117 WEST A", "group": "eutelsat", "lat": -0.03171859304338432, "lon": -88.66948049822565, "alt_km": 35773.607535949566, "timestamp": "2025-12-09T20:37:08.953244+00:00", "meta": {"OBJECT_NAME": "EUTELSAT 117 WEST A", "OBJECT_ID": "2013-012A", "EPOCH": "2025-12-09T13:10:20.257248", "MEAN_MOTION": 1.00270755, "ECCENTRICITY": 0.00030664, "INCLINATION": 0.0129, "RA_OF_ASC_NODE": 349.0918, "ARG_OF_PERICENTER": 271.5504, "MEAN_ANOMALY": 258.6774, "EPHEMERIS_TYPE": 0, "CLASSIFICATION_TYPE": "U", "NORAD_CAT_ID": 39122, "ELEMENT_SET_NO": 999, "REV_AT_EPOCH": 4653, "BSTAR": 0, "MEAN_MOTION_DOT": -1e-07, "MEAN_MOTION_DDOT": 0}, "tle": {"line1": "1 39122U 13012A   25343.54884557 -.00000010  00000+0  00000+0 0  9997", "line2": "2 39122   0.0129 349.0918 0003066 271.5504 258.6774  1.00270755 46538"}}, "geometry": {"type": "Point", "coordinates": [-88.66948049822565, -0.03171859304338432]}}, {"type": "Feature", "properties": {"norad_id": 39163, "name": "EUTELSAT 7B", "group": "eutelsat", "lat": 0.03882751627023544, "lon": 35.166487172497014, "alt_km": 35782.97038888042, "timestamp": "2025-12-09T20:37:08.953257+00:00", "meta": {"OBJECT_NAME": "EUTELSAT 7B", "OBJECT_ID": "2013-022A", "EPOCH": "2025-12-09T13:36:22.491072", "MEAN_MOTION": 1.00271707, "ECCENTRICITY": 0.00045628, "INCLINATION": 0.0707, "RA_OF_ASC_NODE": 14.9491, "ARG_OF_PERICENTER": 299.7285, "MEAN_ANOMALY": 334.959, "EPHEMERIS_TYPE": 0, "CLASSIFICATION_TYPE": "U", "NORAD_CAT_ID": 39163, "ELEMENT_SET_NO": 999, "REV_AT_EPOCH": 4605, "BSTAR": 0, "MEAN_MOTION_DOT": 5e-07, "MEAN_MOTION_DDOT": 0}, "tle": {"line1": "1 39163U 13022A   25343.56692698  .00000050  00000+0  00000+0 0  9991", "line2": "2 39163   0.0707  14.9491 0004562 299.7285 334.9590  1.00271707 46058"}}, "geometry": {"type": "Point", "coordinates": [35.166487172497014, 0.03882751627023544]}}, {"type": "Feature", "properties": {"norad_id": 39612, "name": "EXPRESS-AT1", "group": "eutelsat", "lat": 0.016707222997052015, "lon": 84.11487228729025, "alt_km": 35787.5512025945, "timestamp": "2025-12-09T20:37:08.953269+00:00", "meta": {"OBJECT_NAME": "EXPRESS-AT1", "OBJECT_ID": "2014-010A", "EPOCH": "2025-12-09T13:50:21.151680", "MEAN_MOTION": 1.00270428, "ECCENTRICITY": 5.73e-05, "INCLINATION": 0.0121, "RA_OF_ASC_NODE": 285.2569, "ARG_OF_PERICENTER": 276.1552, "MEAN_ANOMALY": 140.7355, "EPHEMERIS_TYPE": 0, "CLASSIFICATION_TYPE": "U", "NORAD_CAT_ID": 39612, "ELEMENT_SET_NO": 999, "REV_AT_EPOCH": 4291, "BSTAR": 0, "MEAN_MOTION_DOT": 8.1e-07, "MEAN_MOTION_DDOT": 0}, "tle": {"line1": "1 39612U 14010A   25343.57663370  .00000081  00000+0  00000+0 0  9998", "line2": "2 39612   0.0121 285.2569 0000573 276.1552 140.7355  1.00270428 42912"}}, "geometry": {"type": "Point", "coordinates": [84.11487228729025, 0.016707222997052015]}}, {"type": "Feature", "properties": {"norad_id": 39613, "name": "EXPRESS-AT2", "group": "eutelsat", "lat": -0.015025241515544853, "lon": 167.97814928748352, "alt_km": 35789.04545726529, "timestamp": "2025-12-09T20:37:08.953281+00:00", "meta": {"OBJECT_NAME": "EXPRESS-AT2", "OBJECT_ID": "2014-010B", "EPOCH": "2025-12-09T14:54:38.530656", "MEAN_MOTION": 1.00272354, "ECCENTRICITY": 0.00015613, "INCLINATION": 0.0193, "RA_OF_ASC_NODE": 314.24, "ARG_OF_PERICENTER": 331.8795, "MEAN_ANOMALY": 156.0161, "EPHEMERIS_TYPE": 0, "CLASSIFICATION_TYPE": "U", "NORAD_CAT_ID": 39613, "ELEMENT_SET_NO": 999, "REV_AT_EPOCH": 4259, "BSTAR": 0, "MEAN_MOTION_DOT": -2.78e-06, "MEAN_MOTION_DDOT": 0}, "tle": {"line1": "1 39613U 14010B   25343.62127929 -.00000278  00000+0  00000+0 0  9999", "line2": "2 39613   0.0193 314.2400 0001561 331.8795 156.0161  1.00272354 42594"}}, "geometry": {"type": "Point", "coordinates": [167.97814928748352, -0.015025241515544853]}}, {"type": "Feature", "properties": {"norad_id": 39773, "name": "EUTELSAT 3B", "group": "eutelsat", "lat": 0.06288654883568201, "lon": 31.250228505847076, "alt_km": 35805.26124252381, "timestamp": "2025-12-09T20:37:08.953293+00:00", "meta": {"OBJECT_NAME": "EUTELSAT 3B", "OBJECT_ID": "2014-030A", "EPOCH": "2025-12-09T13:35:15.098208", "MEAN_MOTION": 1.00271476, "ECCENTRICITY": 0.00047385, "INCLINATION": 0.0629, "RA_OF_ASC_NODE": 341.9539, "ARG_OF_PERICENTER": 246.3265, "MEAN_ANOMALY": 57.1942, "EPHEMERIS_TYPE": 0, "CLASSIFICATION_TYPE": "U", "NORAD_CAT_ID": 39773, "ELEMENT_SET_NO": 999, "REV_AT_EPOCH": 4216, "BSTAR": 0, "MEAN_MOTION_DOT": 2.2e-07, "MEAN_MOTION_DDOT": 0}, "tle": {"line1": "1 39773U 14030A   25343.56614697  .00000022  00000+0  00000+0 0  9990", "line2": "2 39773   0.0629 341.9539 0004738 246.3265  57.1942  1.00271476 42161"}}, "geometry": {"type": "Point", "coordinates": [31.250228505847076, 0.06288654883568201]}}, {"type": "Feature", "properties": {"norad_id": 40425, "name": "EUTELSAT 115 WEST B", "group": "eutelsat", "lat": 0.010025690357513726, "lon": -86.77704901084769, "alt_km": 35788.34906672126, "timestamp": "2025-12-09T20:37:08.953304+00:00", "meta": {"OBJECT_NAME": "EUTELSAT 115 WEST B", "OBJECT_ID": "2015-010B", "EPOCH": "2025-12-09T10:03:18.437760", "MEAN_MOTION": 1.00267856, "ECCENTRICITY": 2.833e-05, "INCLINATION": 0.0086, "RA_OF_ASC_NODE": 153.759, "ARG_OF_PERICENTER": 289.3308, "MEAN_ANOMALY": 31.2487, "EPHEMERIS_TYPE": 0, "CLASSIFICATION_TYPE": "U", "NORAD_CAT_ID": 40425, "ELEMENT_SET_NO": 999, "REV_AT_EPOCH": 3949, "BSTAR": 0, "MEAN_MOTION_DOT": -2.2e-07, "MEAN_MOTION_DDOT": 0}, "tle": {"line1": "1 40425U 15010B   25343.41896340 -.00000022  00000+0  00000+0 0  9997", "line2": "2 40425   0.0086 153.7590 0000283 289.3308  31.2487  1.00267856 39492"}}, "geometry": {"type": "Point", "coordinates": [-86.77704901084769, 0.010025690357513726]}}, {"type": "Feature", "properties": {"norad_id": 40875, "name": "EUTELSAT 8 WEST B", "group": "eutelsat", "lat": 0.03253302718742221, "lon": 20.183740267719152, "alt_km": 35795.07831499773, "timestamp": "2025-12-09T20:37:08.953316+00:00", "meta": {"OBJECT_NAME": "EUTELSAT 8 WEST B", "OBJECT_ID": "2015-039B", "EPOCH": "2025-12-09T13:31:52.921344", "MEAN_MOTION": 1.00271493, "ECCENTRICITY": 0.00041583, "INCLINATION": 0.0645, "RA_OF_ASC_NODE": 0.9958, "ARG_OF_PERICENTER": 258.725, "MEAN_ANOMALY": 13.8173, "EPHEMERIS_TYPE": 0, "CLASSIFICATION_TYPE": "U", "NORAD_CAT_ID": 40875, "ELEMENT_SET_NO": 999, "REV_AT_EPOCH": 3775, "BSTAR": 0, "MEAN_MOTION_DOT": -6.3e-07, "MEAN_MOTION_DDOT": 0}, "tle": {"line1": "1 40875U 15039B   25343.56380696 -.00000063  00000+0  00000+0 0  9990", "line2": "2 40875   0.0645   0.9958 0004158 258.7250  13.8173  1.00271493 37751"}}, "geometry": {"type": "Point", "coordinates": [20.183740267719152, 0.03253302718742221]}}, {"type": "Feature", "properties": {"norad_id": 41310, "name": "EUTELSAT 9B", "group": "eutelsat", "lat": 0.0035774434087832083, "lon": 37.18286120207986, "alt_km": 35799.84589829653, "timestamp": "2025-12-09T20:37:08.953327+00:00", "meta": {"OBJECT_NAME": "EUTELSAT 9B", "OBJECT_ID": "2016-005A", "EPOCH": "2025-12-09T06:50:38.880672", "MEAN_MOTION": 1.00272177, "ECCENTRICITY": 0.000488, "INCLINATION": 0.0363, "RA_OF_ASC_NODE": 53.41, "ARG_OF_PERICENTER": 211.4344, "MEAN_ANOMALY": 285.108, "EPHEMERIS_TYPE": 0, "CLASSIFICATION_TYPE": "U", "NORAD_CAT_ID": 41310, "ELEMENT_SET_NO": 999, "REV_AT_EPOCH": 3621, "BSTAR": 0, "MEAN_MOTION_DOT": 6.4e-07, "MEAN_MOTION_DDOT": 0}, "tle": {"line1": "1 41310U 16005A   25343.28517223  .00000064  00000+0  00000+0 0  9996", "line2": "2 41310   0.0363  53.4100 0004880 211.4344 285.1080  1.00272177 36218"}}, "geometry": {"type": "Point", "coordinates": [37.18286120207986, 0.0035774434087832083]}}, {"type": "Feature", "properties": {"norad_id": 41382, "name": "EUTELSAT 65 WEST A", "group": "eutelsat", "lat": -0.04141995648071408, "lon": -37.05167817569123, "alt_km": 35779.97055531338, "timestamp": "2025-12-09T20:37:08.953339+00:00", "meta": {"OBJECT_NAME": "EUTELSAT 65 WEST A", "OBJECT_ID": "2016-014A", "EPOCH": "2025-12-09T12:38:04.428096", "MEAN_MOTION": 1.0027273, "ECCENTRICITY": 0.00026485, "INCLINATION": 0.0502, "RA_OF_ASC_NODE": 5.1997, "ARG_OF_PERICENTER": 259.4638, "MEAN_ANOMALY": 298.1642, "EPHEMERIS_TYPE": 0, "CLASSIFICATION_TYPE": "U", "NORAD_CAT_ID": 41382, "ELEMENT_SET_NO": 999, "REV_AT_EPOCH": 3563, "BSTAR": 0, "MEAN_MOTION_DOT": -2.74e-06, "MEAN_MOTION_DDOT": 0}, "tle": {"line1": "1 41382U 16014A   25343.52644014 -.00000274  00000+0  00000+0 0  9995", "line2": "2 41382   0.0502   5.1997 0002648 259.4638 298.1642  1.00272730 35636"}}, "geometry": {"type": "Point", "coordinates": [-37.05167817569123, -0.04141995648071408]}}, {"type": "Feature", "properties": {"norad_id": 41589, "name": "EUTELSAT 117 WEST B", "group": "eutelsat", "lat": 0.006702702448661227, "lon": -88.8603103540365, "alt_km": 35786.17573549638, "timestamp": "2025-12-09T20:37:08.953352+00:00", "meta": {"OBJECT_NAME": "EUTELSAT 117 WEST B", "OBJECT_ID": "2016-038B", "EPOCH": "2025-12-09T11:12:09.715968", "MEAN_MOTION": 1.00274699, "ECCENTRICITY": 2.38e-05, "INCLINATION": 0.0078, "RA_OF_ASC_NODE": 125.2291, "ARG_OF_PERICENTER": 302.5176, "MEAN_ANOMALY": 61.7595, "EPHEMERIS_TYPE": 0, "CLASSIFICATION_TYPE": "U", "NORAD_CAT_ID": 41589, "ELEMENT_SET_NO": 999, "REV_AT_EPOCH": 3476, "BSTAR": 0, "MEAN_MOTION_DOT": -1e-07, "MEAN_MOTION_DDOT": 0}, "tle": {"line1": "1 41589U 16038B   25343.46677912 -.00000010  00000+0  00000+0 0  9994", "line2": "2 41589   0.0078 125.2291 0000238 302.5176  61.7595  1.00274699 34764"}}, "geometry": {"type": "Point", "coordinates": [-88.8603103540365, 0.006702702448661227]}}]}